<?xml version="1.0" encoding="UTF-8"?>
<kml xmlns="http://www.opengis.net/kml/2.2" xmlns:gx="http://www.google.com/kml/ext/2.2" xmlns:kml="http://www.opengis.net/kml/2.2" xmlns:atom="http://www.w3.org/2005/Atom">
<Document>
	<name>Lnea- La virginia Medellín.kml</name>
	<StyleMap id="m_ylw-pushpin6">
		<Pair>
			<key>normal</key>
			<styleUrl>#s_ylw-pushpin5</styleUrl>
		</Pair>
		<Pair>
			<key>highlight</key>
			<styleUrl>#s_ylw-pushpin_hl7</styleUrl>
		</Pair>
	</StyleMap>
	<Style id="s_ylw-pushpin5">
		<IconStyle>
			<scale>1.1</scale>
			<Icon>
				<href>http://maps.google.com/mapfiles/kml/pushpin/ylw-pushpin.png</href>
			</Icon>
			<hotSpot x="20" y="2" xunits="pixels" yunits="pixels"/>
		</IconStyle>
	</Style>
	<Style id="s_ylw-pushpin_hl7">
		<IconStyle>
			<scale>1.3</scale>
			<Icon>
				<href>http://maps.google.com/mapfiles/kml/pushpin/ylw-pushpin.png</href>
			</Icon>
			<hotSpot x="20" y="2" xunits="pixels" yunits="pixels"/>
		</IconStyle>
	</Style>
	<Placemark>
		<name>Lnea- La virginia Medellín</name>
		<styleUrl>#m_ylw-pushpin6</styleUrl>
		<LineString>
			<tessellate>1</tessellate>
			<coordinates>
				-75.86789152048534,4.901910499810988,0 -75.86752442227915,4.902497408257235,0 -75.86736229872049,4.903428841775614,0 -75.86776452759165,4.90395446890567,0 -75.86800223884659,4.905013845970246,0 -75.86764035168054,4.906767315568397,0 -75.86717633125613,4.907933591538917,0 -75.8661662377328,4.909914218134662,0 -75.86697091638808,4.912143240873093,0 -75.86697508211968,4.912212800778412,0 -75.8672375394739,4.913415462995101,0 -75.86651469220821,4.917175228159861,0 -75.86508808823332,4.91971940458571,0 -75.86359487001182,4.923463581922822,0 -75.86145702662368,4.929915601014377,0 -75.85756550164582,4.941321040605298,0 -75.85277058028795,4.950061434192961,0 -75.8516830803667,4.959366871006684,0 -75.85209655860473,4.969282311686488,0 -75.85655708562639,4.982498654215993,0 -75.85751498018746,5.002179443077909,0 -75.85606444055026,5.024092928772712,0 -75.8655289734415,5.036893393764825,0 -75.85473247781441,5.05458385193352,0 -75.8491483592616,5.095631053598507,0 -75.83241482510869,5.114195431873871,0 -75.82382925853314,5.145996572468754,0 -75.81073746655423,5.177101497737994,0 -75.80441274088754,5.188603477206616,0 -75.80164647606873,5.194424092311673,0 -75.79583009246139,5.203488104855131,0 -75.79645347313273,5.228710783352319,0 -75.80755482592352,5.250951869104536,0 -75.8062784856175,5.268996952703248,0 -75.79390477584546,5.297861044108602,0 -75.77596890167236,5.312070414973224,0 -75.77495723528968,5.330006954595025,0 -75.76943639177296,5.360806678547193,0 -75.74430645483589,5.386728933549997,0 -75.73399401056875,5.396874076819707,0 -75.72649561971031,5.413865509693482,0 -75.72072858430715,5.426936138188642,0 -75.71939478866199,5.450512606511812,0 -75.713011702046,5.47801430535277,0 -75.68129757365551,5.50494561114108,0 -75.67477038034008,5.529065179897713,0 -75.67552382196455,5.535991478601475,0 -75.67533675215287,5.538298256173087,0 -75.65443435865231,5.55658081695317,0 -75.64403553727264,5.568722985502914,0 -75.67610637104814,5.620566709975045,0 -75.66572899301444,5.666966845992022,0 -75.67158720443383,5.722452598266433,0 -75.62496454593804,5.819194292133192,0 -75.62310456511305,5.864273430327593,0 -75.64233437263387,5.920027635740511,0 -75.65461478415138,5.987693088961925,0 -75.64381940535596,6.05029857949628,0 -75.63591788020585,6.061957365143617,0 
			</coordinates>
		</LineString>
		<atom:link rel="app" href="https://www.google.com/earth/about/versions/#earth-pro" title="Google Earth Pro 7.3.7.1155"></atom:link>
	</Placemark>
</Document>
</kml>
