{
  "type": "FeatureCollection",
  "generator": "overpass-turbo",
  "copyright": "The data included in this document is from www.openstreetmap.org. The data is made available under ODbL.",
  "timestamp": "2026-02-17T14:06:10Z",
  "features": [
    {
      "type": "Feature",
      "properties": {
        "@id": "way/79165477",
        "location": "outdoor",
        "name": "Ocana",
        "power": "substation",
        "substation": "transmission",
        "voltage": "500000;230000;115000"
      },
      "geometry": {
        "type": "Polygon",
        "coordinates": [
          [
            [
              -73.3219658,
              8.2175737
            ],
            [
              -73.3204982,
              8.216896
            ],
            [
              -73.3206338,
              8.2165876
            ],
            [
              -73.3198378,
              8.2162609
            ],
            [
              -73.3193314,
              8.2160723
            ],
            [
              -73.319175,
              8.216554
            ],
            [
              -73.3188846,
              8.2179205
            ],
            [
              -73.3193927,
              8.2180133
            ],
            [
              -73.3193435,
              8.2184498
            ],
            [
              -73.3197569,
              8.2185794
            ],
            [
              -73.3200214,
              8.2181676
            ],
            [
              -73.3213763,
              8.2187783
            ],
            [
              -73.3219658,
              8.2175737
            ]
          ]
        ]
      },
      "id": "way/79165477"
    },
    {
      "type": "Feature",
      "properties": {
        "@id": "way/88597989",
        "name": "Sabanalarga",
        "operator": "Afinia",
        "power": "substation",
        "substation": "transmission",
        "voltage": "500000;220000;110000"
      },
      "geometry": {
        "type": "Polygon",
        "coordinates": [
          [
            [
              -74.911449,
              10.6518676
            ],
            [
              -74.9112797,
              10.6523262
            ],
            [
              -74.9115155,
              10.6524193
            ],
            [
              -74.9116546,
              10.6525858
            ],
            [
              -74.9121002,
              10.6527245
            ],
            [
              -74.9122494,
              10.6523143
            ],
            [
              -74.9120538,
              10.652249
            ],
            [
              -74.9120185,
              10.6521917
            ],
            [
              -74.912193,
              10.6517252
            ],
            [
              -74.9117975,
              10.6515823
            ],
            [
              -74.9120951,
              10.6507868
            ],
            [
              -74.9130729,
              10.6511401
            ],
            [
              -74.9132973,
              10.6505401
            ],
            [
              -74.9129069,
              10.6503991
            ],
            [
              -74.9129936,
              10.6501675
            ],
            [
              -74.9128748,
              10.6501245
            ],
            [
              -74.9129745,
              10.6498579
            ],
            [
              -74.9129007,
              10.6498313
            ],
            [
              -74.9130318,
              10.649481
            ],
            [
              -74.912868,
              10.6494218
            ],
            [
              -74.9128442,
              10.6494852
            ],
            [
              -74.9126221,
              10.649405
            ],
            [
              -74.9093079,
              10.6482075
            ],
            [
              -74.9087974,
              10.649572
            ],
            [
              -74.9091572,
              10.6497004
            ],
            [
              -74.9089158,
              10.6502645
            ],
            [
              -74.9097633,
              10.6506124
            ],
            [
              -74.910214,
              10.6504964
            ],
            [
              -74.9103507,
              10.65013
            ],
            [
              -74.9116187,
              10.6505914
            ],
            [
              -74.9113918,
              10.6511979
            ],
            [
              -74.9114855,
              10.6512318
            ],
            [
              -74.9114284,
              10.6513845
            ],
            [
              -74.9113624,
              10.6513607
            ],
            [
              -74.9112057,
              10.6517797
            ],
            [
              -74.911449,
              10.6518676
            ]
          ]
        ]
      },
      "id": "way/88597989"
    },
    {
      "type": "Feature",
      "properties": {
        "@id": "way/108961999",
        "barrier": "fence",
        "location": "outdoor",
        "name": "SE Bolívar 220 kV",
        "operator": "Afinia",
        "power": "substation",
        "substation": "transmission",
        "voltage": "500000;220000"
      },
      "geometry": {
        "type": "Polygon",
        "coordinates": [
          [
            [
              -75.3969203,
              10.4479836
            ],
            [
              -75.397197,
              10.4465176
            ],
            [
              -75.396643,
              10.446131
            ],
            [
              -75.3966486,
              10.4458362
            ],
            [
              -75.3952547,
              10.4454209
            ],
            [
              -75.3946828,
              10.445292
            ],
            [
              -75.3946367,
              10.4475971
            ],
            [
              -75.3969203,
              10.4479836
            ]
          ]
        ]
      },
      "id": "way/108961999"
    },
    {
      "type": "Feature",
      "properties": {
        "@id": "way/187874360",
        "location": "outdoor",
        "name": "Cerromatoso",
        "power": "substation",
        "source": "Bing Aerial Maps",
        "source:date": "2011-05-02",
        "substation": "transmission",
        "voltage": "500000;230000;110000"
      },
      "geometry": {
        "type": "Polygon",
        "coordinates": [
          [
            [
              -75.4956712,
              7.9333108
            ],
            [
              -75.4933511,
              7.934586
            ],
            [
              -75.4943462,
              7.9364137
            ],
            [
              -75.4940431,
              7.9365943
            ],
            [
              -75.4943052,
              7.9370828
            ],
            [
              -75.4943776,
              7.9370509
            ],
            [
              -75.4945412,
              7.937359
            ],
            [
              -75.4945225,
              7.9374839
            ],
            [
              -75.4945983,
              7.937625
            ],
            [
              -75.4952769,
              7.9372319
            ],
            [
              -75.4954111,
              7.9374949
            ],
            [
              -75.4978943,
              7.9361967
            ],
            [
              -75.4975178,
              7.935496
            ],
            [
              -75.4973907,
              7.9355538
            ],
            [
              -75.4970866,
              7.9349868
            ],
            [
              -75.4970407,
              7.9350044
            ],
            [
              -75.4964676,
              7.9340237
            ],
            [
              -75.4960222,
              7.9339044
            ],
            [
              -75.4956712,
              7.9333108
            ]
          ]
        ]
      },
      "id": "way/187874360"
    },
    {
      "type": "Feature",
      "properties": {
        "@id": "way/263074218",
        "location": "outdoor",
        "name": "Chinú",
        "power": "substation",
        "ref": "Chinú",
        "substation": "transmission",
        "voltage": "500000;230000;110000"
      },
      "geometry": {
        "type": "Polygon",
        "coordinates": [
          [
            [
              -75.4273226,
              9.1216853
            ],
            [
              -75.4273599,
              9.1187497
            ],
            [
              -75.4270542,
              9.1187444
            ],
            [
              -75.4270403,
              9.1181941
            ],
            [
              -75.4249693,
              9.1181862
            ],
            [
              -75.4249654,
              9.1189107
            ],
            [
              -75.424927,
              9.1207125
            ],
            [
              -75.4240286,
              9.121443
            ],
            [
              -75.4247856,
              9.1223506
            ],
            [
              -75.4255852,
              9.1216981
            ],
            [
              -75.4273226,
              9.1216853
            ]
          ]
        ]
      },
      "id": "way/263074218"
    },
    {
      "type": "Feature",
      "properties": {
        "@id": "way/329137670",
        "location": "outdoor",
        "name": "Subestacion El Copey",
        "power": "substation",
        "ref": "Copey",
        "substation": "transmission",
        "voltage": "500000;220000;110000"
      },
      "geometry": {
        "type": "Polygon",
        "coordinates": [
          [
            [
              -73.9404377,
              10.1617504
            ],
            [
              -73.9419735,
              10.1607576
            ],
            [
              -73.9419866,
              10.1606377
            ],
            [
              -73.9422838,
              10.1604251
            ],
            [
              -73.9422718,
              10.1603393
            ],
            [
              -73.9423254,
              10.1603103
            ],
            [
              -73.9423858,
              10.1603499
            ],
            [
              -73.9434872,
              10.1595467
            ],
            [
              -73.9423268,
              10.1579151
            ],
            [
              -73.9409353,
              10.1588984
            ],
            [
              -73.9408699,
              10.1588426
            ],
            [
              -73.9391642,
              10.1599397
            ],
            [
              -73.9404377,
              10.1617504
            ]
          ]
        ]
      },
      "id": "way/329137670"
    },
    {
      "type": "Feature",
      "properties": {
        "@id": "way/330857322",
        "location": "outdoor",
        "name": "San Marcos",
        "operator": "EPSA",
        "power": "substation",
        "substation": "transmission",
        "voltage": "500000;230000;115000"
      },
      "geometry": {
        "type": "Polygon",
        "coordinates": [
          [
            [
              -76.4852758,
              3.6059951
            ],
            [
              -76.4849267,
              3.6074411
            ],
            [
              -76.4871861,
              3.6081277
            ],
            [
              -76.4890244,
              3.6074373
            ],
            [
              -76.4890168,
              3.6071222
            ],
            [
              -76.490006,
              3.6070259
            ],
            [
              -76.4899233,
              3.6057315
            ],
            [
              -76.4894383,
              3.6055045
            ],
            [
              -76.4882158,
              3.6054486
            ],
            [
              -76.4881999,
              3.6052364
            ],
            [
              -76.4873889,
              3.6054325
            ],
            [
              -76.4874367,
              3.606016
            ],
            [
              -76.4864774,
              3.6061066
            ],
            [
              -76.486398,
              3.6060705
            ],
            [
              -76.4863175,
              3.6050587
            ],
            [
              -76.4858288,
              3.6050931
            ],
            [
              -76.4858896,
              3.6059501
            ],
            [
              -76.4852758,
              3.6059951
            ]
          ]
        ]
      },
      "id": "way/330857322"
    },
    {
      "type": "Feature",
      "properties": {
        "@id": "way/497937824",
        "location": "outdoor",
        "name": "Subestación eléctrica Primavera",
        "operator": "ISA",
        "power": "substation",
        "source": "Mapbox",
        "substation": "transmission",
        "voltage": "500000;230000"
      },
      "geometry": {
        "type": "Polygon",
        "coordinates": [
          [
            [
              -74.3514803,
              6.4989884
            ],
            [
              -74.3519229,
              6.5002436
            ],
            [
              -74.3520597,
              6.5005127
            ],
            [
              -74.3522501,
              6.5010297
            ],
            [
              -74.3537897,
              6.5004674
            ],
            [
              -74.3538943,
              6.5003661
            ],
            [
              -74.354243,
              6.5002249
            ],
            [
              -74.3540203,
              6.4995565
            ],
            [
              -74.353964,
              6.4994867
            ],
            [
              -74.3533632,
              6.4997052
            ],
            [
              -74.3531003,
              6.4996999
            ],
            [
              -74.352859,
              6.4997292
            ],
            [
              -74.3527028,
              6.4993446
            ],
            [
              -74.3526033,
              6.4990564
            ],
            [
              -74.3524513,
              6.4986366
            ],
            [
              -74.3514803,
              6.4989884
            ]
          ]
        ]
      },
      "id": "way/497937824"
    },
    {
      "type": "Feature",
      "properties": {
        "@id": "way/625698510",
        "location": "outdoor",
        "name": "Nueva Esperanza",
        "operator": "EPM/CODENSA",
        "power": "substation",
        "rating": "450 MVA",
        "start_date": "2017",
        "substation": "transmission",
        "voltage": "500000;230000;115000"
      },
      "geometry": {
        "type": "Polygon",
        "coordinates": [
          [
            [
              -74.2816756,
              4.5716442
            ],
            [
              -74.2817445,
              4.571932
            ],
            [
              -74.2813935,
              4.5720254
            ],
            [
              -74.2819541,
              4.5742579
            ],
            [
              -74.2828467,
              4.5740385
            ],
            [
              -74.2828702,
              4.5741331
            ],
            [
              -74.283066,
              4.5741722
            ],
            [
              -74.2831928,
              4.5741718
            ],
            [
              -74.2844333,
              4.5738335
            ],
            [
              -74.2842481,
              4.5731487
            ],
            [
              -74.2843069,
              4.5729635
            ],
            [
              -74.2851008,
              4.5727576
            ],
            [
              -74.2846072,
              4.5708057
            ],
            [
              -74.2843235,
              4.5706603
            ],
            [
              -74.2820972,
              4.5712449
            ],
            [
              -74.2821613,
              4.5715205
            ],
            [
              -74.2816756,
              4.5716442
            ]
          ]
        ]
      },
      "id": "way/625698510"
    },
    {
      "type": "Feature",
      "properties": {
        "@id": "way/788851156",
        "location": "outdoor",
        "name": "Sogamoso",
        "power": "substation",
        "substation": "transmission",
        "voltage": "500000;230000"
      },
      "geometry": {
        "type": "Polygon",
        "coordinates": [
          [
            [
              -73.4622378,
              7.1207855
            ],
            [
              -73.4598852,
              7.1207747
            ],
            [
              -73.4598086,
              7.1208499
            ],
            [
              -73.4598073,
              7.1211341
            ],
            [
              -73.4586012,
              7.1211286
            ],
            [
              -73.4585902,
              7.1234891
            ],
            [
              -73.4622251,
              7.1235057
            ],
            [
              -73.4622378,
              7.1207855
            ]
          ]
        ]
      },
      "id": "way/788851156"
    },
    {
      "type": "Feature",
      "properties": {
        "@id": "way/1082345314",
        "location": "outdoor",
        "name": "La Loma",
        "power": "substation",
        "substation": "transmission",
        "voltage": "500000;110000"
      },
      "geometry": {
        "type": "Polygon",
        "coordinates": [
          [
            [
              -73.6167938,
              9.5991677
            ],
            [
              -73.6173524,
              9.6025365
            ],
            [
              -73.6180258,
              9.6024363
            ],
            [
              -73.6180608,
              9.6026413
            ],
            [
              -73.6187397,
              9.6025166
            ],
            [
              -73.6186449,
              9.6020329
            ],
            [
              -73.6190394,
              9.6019806
            ],
            [
              -73.6190132,
              9.6020829
            ],
            [
              -73.6191467,
              9.6021223
            ],
            [
              -73.6191998,
              9.6019477
            ],
            [
              -73.6191413,
              9.6019282
            ],
            [
              -73.6191073,
              9.6017037
            ],
            [
              -73.6189857,
              9.6016635
            ],
            [
              -73.6189597,
              9.6015068
            ],
            [
              -73.6188597,
              9.6015229
            ],
            [
              -73.6187176,
              9.6006656
            ],
            [
              -73.6188067,
              9.6006513
            ],
            [
              -73.618745,
              9.6002789
            ],
            [
              -73.6186558,
              9.6002932
            ],
            [
              -73.6185226,
              9.5994895
            ],
            [
              -73.6182478,
              9.5995338
            ],
            [
              -73.6181508,
              9.598949
            ],
            [
              -73.6167938,
              9.5991677
            ]
          ]
        ]
      },
      "id": "way/1082345314"
    },
    {
      "type": "Feature",
      "properties": {
        "@id": "node/13104557521",
        "fixme": "Accurately place the substation and update 500 kV grid",
        "name": "Nueva Cuestecitas",
        "power": "substation",
        "source": "Sentinel-2",
        "substation": "transmission",
        "voltage": "500000;220000"
      },
      "geometry": {
        "type": "Point",
        "coordinates": [
          -72.6126551,
          11.1767599
        ]
      },
      "id": "node/13104557521"
    }
  ]
}